*******************************************************************************
Ephemeris / WWW_USER Mon Mar 24 08:05:17 2025 Pasadena, USA      / Horizons    
*******************************************************************************
Target body name: (2018 US2)                      {source: JPL#14}
Center body name: Earth (399)                     {source: DE441}
Center-site name: Mauna Kea
*******************************************************************************
Start time      : A.D. 2018-Oct-15 04:08:00.0000 UT      
Stop  time      : A.D. 2018-Oct-15 16:07:00.0000 UT      
Step-size       : 1 minutes
*******************************************************************************
Target pole/equ : undefined
Target radii    : undefined                                                    
Center geodetic : 204.5278, 19.8260847, 4.21024   {E-lon(deg),Lat(deg),Alt(km)}
Center cylindric: 204.5278, 6006.35451, 2151.0229 {E-lon(deg),Dxy(km),Dz(km)}
Center pole/equ : ITRF93                          {East-longitude positive}
Center radii    : 6378.137, 6378.137, 6356.752 km {Equator_a, b, pole_c}       
Target primary  : Sun
Vis. interferer : MOON (R_eq= 1737.400) km        {source: DE441}
Rel. light bend : Sun                             {source: DE441}
Rel. lght bnd GM: 1.3271E+11 km^3/s^2                                          
Small-body perts: Yes                             {source: SB441-N16}
Atmos refraction: NO (AIRLESS)
RA format       : HMS
Time format     : CAL 
Calendar mode   : Mixed Julian/Gregorian
RTS-only print  : NO       
EOP file        : eop.250321.p250617                                           
EOP coverage    : DATA-BASED 1962-JAN-20 TO 2025-MAR-21. PREDICTS-> 2025-JUN-16
Units conversion: 1 au= 149597870.700 km, c= 299792.458 km/s, 1 day= 86400.0 s 
Table cut-offs 1: Elevation (-90.0deg=NO ),Airmass (>38.000=NO), Daylight (YES)
Table cut-offs 2: Solar elongation (  0.0,180.0=NO ),Local Hour Angle( 0.0=NO )
Table cut-offs 3: RA/DEC angular rate (     0.0=NO )                           
*******************************************************************************
Initial IAU76/J2000 heliocentric ecliptic osculating elements (au, days, deg.):
  EPOCH=  2458424.5 ! 2018-Nov-02.00 (TDB)         Residual RMS= .2503         
   EC= .6580934192644969   QR= 1.019516546973241   TP= 2458405.4003266119      
   OM= 225.9089147719754   W=  151.3321843630243   IN= 7.044798776353047       
  Equivalent ICRF heliocentric cartesian coordinates (au, au/d):
   X= 8.026033061055595E-01  Y= 6.200562709856074E-01  Z= 2.826199844552283E-01
  VX=-1.102263624249032E-02 VY= 1.780430100977025E-02 VZ= 4.937770740848229E-03
Asteroid physical parameters (km, seconds, rotational period in hours):        
   GM= n.a.                RAD= n.a.               ROTPER= n.a.                
   H= 24.88                G= .150                 B-V= n.a.                   
                           ALBEDO= n.a.            STYP= n.a.                  
*******************************************************************************
 Date__(UT)__HR:MN     R.A._________(ICRF)_________DEC
******************************************************
$$SOE
 2018-Oct-15 10:17     20 13 17.751874 +31 20 24.51608
 2018-Oct-15 10:18     20 13 18.170859 +31 20 28.39042
 2018-Oct-15 10:19     20 13 18.590050 +31 20 32.26474
 2018-Oct-15 10:20     20 13 19.009448 +31 20 36.13905
 2018-Oct-15 10:21     20 13 19.429051 +31 20 40.01336
 2018-Oct-15 10:22     20 13 19.848861 +31 20 43.88767
 2018-Oct-15 10:23     20 13 20.268877 +31 20 47.76198
 2018-Oct-15 10:24     20 13 20.689100 +31 20 51.63630
 2018-Oct-15 10:25     20 13 21.109530 +31 20 55.51063
 2018-Oct-15 10:26     20 13 21.530167 +31 20 59.38499
 2018-Oct-15 10:27     20 13 21.951010 +31 21 03.25936
 2018-Oct-15 10:28     20 13 22.372062 +31 21 07.13376
 2018-Oct-15 10:29     20 13 22.793320 +31 21 11.00820
 2018-Oct-15 10:30     20 13 23.214786 +31 21 14.88267
 2018-Oct-15 10:31     20 13 23.636459 +31 21 18.75718
 2018-Oct-15 10:32     20 13 24.058340 +31 21 22.63174
 2018-Oct-15 10:33     20 13 24.480429 +31 21 26.50635
 2018-Oct-15 10:34     20 13 24.902726 +31 21 30.38102
 2018-Oct-15 10:35     20 13 25.325232 +31 21 34.25575
 2018-Oct-15 10:36     20 13 25.747945 +31 21 38.13054
 2018-Oct-15 10:37     20 13 26.170866 +31 21 42.00540
 2018-Oct-15 10:38     20 13 26.593996 +31 21 45.88034
 2018-Oct-15 10:39     20 13 27.017335 +31 21 49.75536
 2018-Oct-15 10:40     20 13 27.440882 +31 21 53.63046
 2018-Oct-15 10:41     20 13 27.864638 +31 21 57.50565
 2018-Oct-15 10:42     20 13 28.288602 +31 22 01.38093
 2018-Oct-15 10:43     20 13 28.712776 +31 22 05.25632
 2018-Oct-15 10:44     20 13 29.137158 +31 22 09.13180
 2018-Oct-15 10:45     20 13 29.561749 +31 22 13.00739
 2018-Oct-15 10:46     20 13 29.986550 +31 22 16.88310
 2018-Oct-15 10:47     20 13 30.411559 +31 22 20.75892
 2018-Oct-15 10:48     20 13 30.836778 +31 22 24.63487
 2018-Oct-15 10:49     20 13 31.262207 +31 22 28.51094
 2018-Oct-15 10:50     20 13 31.687845 +31 22 32.38715
 2018-Oct-15 10:51     20 13 32.113692 +31 22 36.26349
 2018-Oct-15 10:52     20 13 32.539748 +31 22 40.13997
 2018-Oct-15 10:53     20 13 32.966015 +31 22 44.01660
 2018-Oct-15 10:54     20 13 33.392491 +31 22 47.89338
 2018-Oct-15 10:55     20 13 33.819176 +31 22 51.77032
 2018-Oct-15 10:56     20 13 34.246072 +31 22 55.64741
 2018-Oct-15 10:57     20 13 34.673177 +31 22 59.52467
 2018-Oct-15 10:58     20 13 35.100492 +31 23 03.40210
 2018-Oct-15 10:59     20 13 35.528017 +31 23 07.27971
 2018-Oct-15 11:00     20 13 35.955752 +31 23 11.15750
 2018-Oct-15 11:01     20 13 36.383696 +31 23 15.03546
 2018-Oct-15 11:02     20 13 36.811851 +31 23 18.91362
 2018-Oct-15 11:03     20 13 37.240216 +31 23 22.79198
 2018-Oct-15 11:04     20 13 37.668791 +31 23 26.67053
 2018-Oct-15 11:05     20 13 38.097575 +31 23 30.54928
 2018-Oct-15 11:06     20 13 38.526570 +31 23 34.42824
 2018-Oct-15 11:07     20 13 38.955775 +31 23 38.30742
 2018-Oct-15 11:08     20 13 39.385190 +31 23 42.18681
 2018-Oct-15 11:09     20 13 39.814815 +31 23 46.06643
 2018-Oct-15 11:10     20 13 40.244650 +31 23 49.94628
 2018-Oct-15 11:11     20 13 40.674696 +31 23 53.82635
 2018-Oct-15 11:12     20 13 41.104951 +31 23 57.70667
 2018-Oct-15 11:13     20 13 41.535416 +31 24 01.58722
 2018-Oct-15 11:14     20 13 41.966092 +31 24 05.46802
 2018-Oct-15 11:15     20 13 42.396977 +31 24 09.34908
 2018-Oct-15 11:16     20 13 42.828073 +31 24 13.23039
 2018-Oct-15 11:17     20 13 43.259379 +31 24 17.11196
 2018-Oct-15 11:18     20 13 43.690895 +31 24 20.99379
 2018-Oct-15 11:19     20 13 44.122620 +31 24 24.87590
 2018-Oct-15 11:20     20 13 44.554556 +31 24 28.75828
 2018-Oct-15 11:21     20 13 44.986702 +31 24 32.64095
 2018-Oct-15 11:22     20 13 45.419057 +31 24 36.52389
 2018-Oct-15 11:23     20 13 45.851623 +31 24 40.40713
 2018-Oct-15 11:24     20 13 46.284398 +31 24 44.29066
 2018-Oct-15 11:25     20 13 46.717383 +31 24 48.17449
 2018-Oct-15 11:26     20 13 47.150578 +31 24 52.05863
 2018-Oct-15 11:27     20 13 47.583982 +31 24 55.94307
 2018-Oct-15 11:28     20 13 48.017596 +31 24 59.82783
 2018-Oct-15 11:29     20 13 48.451420 +31 25 03.71291
 2018-Oct-15 11:30     20 13 48.885453 +31 25 07.59831
 2018-Oct-15 11:31     20 13 49.319696 +31 25 11.48404
 2018-Oct-15 11:32     20 13 49.754148 +31 25 15.37010
 2018-Oct-15 11:33     20 13 50.188810 +31 25 19.25650
 2018-Oct-15 11:34     20 13 50.623681 +31 25 23.14324
 2018-Oct-15 11:35     20 13 51.058761 +31 25 27.03033
 2018-Oct-15 11:36     20 13 51.494050 +31 25 30.91777
 2018-Oct-15 11:37     20 13 51.929548 +31 25 34.80557
 2018-Oct-15 11:38     20 13 52.365255 +31 25 38.69373
 2018-Oct-15 11:39     20 13 52.801171 +31 25 42.58225
 2018-Oct-15 11:40     20 13 53.237296 +31 25 46.47115
 2018-Oct-15 11:41     20 13 53.673630 +31 25 50.36042
 2018-Oct-15 11:42     20 13 54.110172 +31 25 54.25008
 2018-Oct-15 11:43     20 13 54.546922 +31 25 58.14012
 2018-Oct-15 11:44     20 13 54.983882 +31 26 02.03055
 2018-Oct-15 11:45     20 13 55.421049 +31 26 05.92137
 2018-Oct-15 11:46     20 13 55.858424 +31 26 09.81259
 2018-Oct-15 11:47     20 13 56.296008 +31 26 13.70422
 2018-Oct-15 11:48     20 13 56.733800 +31 26 17.59626
 2018-Oct-15 11:49     20 13 57.171799 +31 26 21.48871
 2018-Oct-15 11:50     20 13 57.610007 +31 26 25.38158
 2018-Oct-15 11:51     20 13 58.048421 +31 26 29.27488
 2018-Oct-15 11:52     20 13 58.487044 +31 26 33.16860
 2018-Oct-15 11:53     20 13 58.925873 +31 26 37.06275
 2018-Oct-15 11:54     20 13 59.364910 +31 26 40.95735
 2018-Oct-15 11:55     20 13 59.804154 +31 26 44.85238
 2018-Oct-15 11:56     20 14 00.243605 +31 26 48.74786
 2018-Oct-15 11:57     20 14 00.683263 +31 26 52.64380
 2018-Oct-15 11:58     20 14 01.123128 +31 26 56.54019
 2018-Oct-15 11:59     20 14 01.563199 +31 27 00.43704
 2018-Oct-15 12:00     20 14 02.003476 +31 27 04.33436
 2018-Oct-15 12:01     20 14 02.443960 +31 27 08.23215
 2018-Oct-15 12:02     20 14 02.884650 +31 27 12.13041
 2018-Oct-15 12:03     20 14 03.325545 +31 27 16.02915
 2018-Oct-15 12:04     20 14 03.766647 +31 27 19.92838
 2018-Oct-15 12:05     20 14 04.207953 +31 27 23.82810
 2018-Oct-15 12:06  s  20 14 04.649466 +31 27 27.72831
 2018-Oct-15 12:07     20 14 05.091183 +31 27 31.62902
 2018-Oct-15 12:08     20 14 05.533106 +31 27 35.53024
 2018-Oct-15 12:09     20 14 05.975234 +31 27 39.43196
 2018-Oct-15 12:10     20 14 06.417566 +31 27 43.33420
 2018-Oct-15 12:11     20 14 06.860103 +31 27 47.23695
 2018-Oct-15 12:12     20 14 07.302844 +31 27 51.14023
 2018-Oct-15 12:13     20 14 07.745789 +31 27 55.04403
 2018-Oct-15 12:14     20 14 08.188939 +31 27 58.94836
 2018-Oct-15 12:15     20 14 08.632292 +31 28 02.85323
 2018-Oct-15 12:16     20 14 09.075848 +31 28 06.75864
 2018-Oct-15 12:17     20 14 09.519608 +31 28 10.66460
 2018-Oct-15 12:18     20 14 09.963571 +31 28 14.57111
 2018-Oct-15 12:19     20 14 10.407737 +31 28 18.47817
